RS57S MONITOR-4
1 57182U 23091S   26028.87651152  .00016465  00000+0  66555-3 0  9992
2 57182  97.5291  91.4408 0011520 226.6405 133.3874 15.24755314143046
RS-38S
1 57189U 23091Z   26029.50759874  .00025904  00000+0  85885-3 0  9995
2 57189  97.5291  96.5813 0007658 196.9220 163.1767 15.31223043143432
RS49S NANOZOND-1
1 57190U 23091AA  26029.36355553  .00150341  00000+0  16785-2 0  9993
2 57190  97.5190 106.8486 0003798 188.3046 171.8150 15.62274964144115
RS27S UTMN-2
1 57203U 23091AP  26029.49825609  .00020042  00000+0  72904-3 0  9996
2 57203  97.5292  95.0520 0008252 202.3598 157.7283 15.28250883143339
METEOR-M2-4
1 59051U 24039A   26029.53852645  .00000070  00000+0  50902-4 0  9991
2 59051  98.6836 350.7150 0006491 203.4282 156.6601 14.22410639 99559
SONATE-2
1 59112U 24043Q   26029.33757162  .00046755  00000+0  88163-3 0  9999
2 59112  97.5341 172.4835 0008379 356.4733   3.6456 15.48314743106334
MO-122
1 60209U 24125G   26029.49362209  .00054955  00000+0  97017-3 0  9999
2 60209  97.2498 245.0132 0014176  14.9390 345.2278 15.50086720 87998
GRBBeta
1 60237U 24128C   26028.99006000  .00007601  00000+0  52568-3 0  9999
2 60237  61.9918 344.1906 0054350 105.9664 254.7426 15.05310610 85307
Curium One
1 60242U 24128H   26029.22915921  .00016086  00000+0  96409-3 0  9992
2 60242  61.9811 337.0450 0054310 102.4172 258.3007 15.09928604 85455
ROBUSTA-3A
1 60243U 24128J   26029.18812721  .00016483  00000+0  10063-2 0  9994
2 60243  61.9886 338.9447 0054616 100.2269 260.4990 15.09230504 85423
CatSat
1 60246U 24125J   26029.48376896  .00063431  00000+0  13191-2 0  9995
2 60246  97.2263 241.4805 0030232 336.2372  23.7479 15.44927034 85889
ARTIC WX
1 60543U 24149CD  26028.92137124  .00001607  00000+0  17299-3 0  9999
2 60543  97.6959 103.2769 0001926 172.5964 187.5282 14.89817928 78561
ARCTICSAT 1
1 61762U 24199AD  26029.55200979  .00095984  00000+0  12373-2 0  9995
2 61762  97.3176 266.5887 0008721  53.0784 307.1270 15.58651450116282
MORDOVIA-IOT
1 61765U 24199AG  26029.50084266  .01132704  69292-3  18995-2 0  9993
2 61765  97.2916 271.0378 0005377  76.5280 283.6598 16.02986636113439
HYPERVIEW-1G (RS66S)
1 61772U 24199AP  26029.57542188  .00070045  00000+0  11163-2 0  9996
2 61772  97.3164 264.7613 0011576  67.9083 292.3398 15.52938667113022
AO-123
1 61781U 24199AY  26029.53295663  .00015681  00000+0  48914-3 0  9995
2 61781  97.3218 259.4884 0016060  85.2259 275.0817 15.33182786112669
SAMSAT-IONOSPHERE
1 61784U 24199BB  26029.56051631  .00050769  00000+0  10194-2 0  9990
2 61784  97.3186 263.1636 0012996  72.7302 287.5368 15.46418152116067
CROCUBE
1 62394U 24247T   26028.81775966  .00044967  00000+0  11657-2 0  9991
2 62394  44.9747 319.2243 0001203 108.2076 251.8942 15.38371274 61813
HADES-R (SO-124)
1 62690U 25009CK  26027.69036303  .01277540  79413-3  34114-2 0  9994
2 62690  97.3673 117.9089 0007524 300.8866  59.1669 15.94641014 57995
JINJUSat 1B
1 63210U 25052A   26028.94902278  .00026897  00000+0  96681-3 0  9999
2 63210  97.4178 285.8650 0002598 187.7094 172.4106 15.28607124 48799
NUSHSAT 1
1 63211U 25052B   26028.71091834  .00031490  00000+0  10841-2 0  9990
2 63211  97.4156 285.8241 0002099 190.3449 169.7749 15.29984958 48776
TEVEL2-4
1 63213U 25052D   26029.25812095  .00031199  00000+0  11007-2 0  9993
2 63213  97.4080 285.8181 0000985 200.8896 159.2304 15.29189651 48848
TEVEL2-5
1 63214U 25052E   26029.20080409  .00030722  00000+0  10874-2 0  9997
2 63214  97.4080 285.7407 0000982 205.1733 154.9459 15.29086501 48836
TEVEL2-6
1 63215U 25052F   26028.68598625  .00027852  00000+0  98878-3 0  9994
2 63215  97.4079 285.2158 0000946 210.1212 149.9973 15.29009641 48757
TEVEL2-1
1 63217U 25052H   26029.19756029  .00030137  00000+0  10806-2 0  9991
2 63217  97.4053 285.4939 0000863 254.3690 105.7455 15.28667212 48824
TEVEL2-3
1 63218U 25052J   26029.45779877  .00029788  00000+0  10667-2 0  9992
2 63218  97.4054 285.7623 0000836 252.8492 107.2656 15.28710582 48865
TEVEL2-2
1 63219U 25052K   26029.46009821  .00029153  00000+0  10451-2 0  9996
2 63219  97.4052 285.7561 0000695 249.9961 110.1204 15.28681400 48864
TEVEL2-9
1 63237U 25052AD  26028.68518584  .00025655  00000+0  96726-3 0  9993
2 63237  97.4118 284.6215 0004845 283.8874  76.1825 15.27034285 48707
TEVEL2-7
1 63238U 25052AE  26029.22852747  .00026971  00000+0  10213-2 0  9995
2 63238  97.4121 285.1242 0004829 282.1025  77.9673 15.26880544 48784
TEVEL2-8
1 63239U 25052AF  26029.43155615  .00026983  00000+0  10222-2 0  9992
2 63239  97.4118 285.3085 0004811 282.1950  77.8750 15.26865517 48818
HYDRA-W
1 63490U 25052BL  26029.22543917  .00159133  00000+0  27124-2 0  9997
2 63490  97.4039 288.9670 0002476 261.6289  98.4682 15.50784328 49057
HADES-ICM (SO-125)
1 63492U 25052BN  26029.49155818  .00131084  00000+0  25135-2 0  9992
2 63492  97.4037 288.7944 0003475 263.4962  96.5893 15.47514744 49060
PARUS-T2
1 64574U 25135AY  26029.49689981  .00007609  00000+0  70930-3 0  9998
2 64574  97.7599 145.7805 0002849  82.0369 278.1174 14.94516437 33207
Dragonfly
1 65729U 98067XH  26028.83530788  .02150850  51119-2  17459-2 0  9997
2 65729  51.6063 249.8464 0007538 230.2713 129.7639 16.14710791 20635
RSP-03
1 65732U 98067XL  26028.88793537  .00486198  00000+0  15246-2 0  9996
2 65732  51.6201 253.2985 0005397 194.6285 165.4566 15.89659065 20608
BOTAN
1 65942U 98067XP  26028.90640339  .00290204  00000+0  16092-2 0  9994
2 65942  51.6209 258.7225 0005472 195.0902 164.9936 15.78139785 17275
CEVROSAT1
1 66309U 25248S   26027.72281113  .00007926  00000+0  38741-3 0  9996
2 66309  45.4029 153.9453 0003421 314.5971  45.4636 15.18773460 13149
SPIRONE
1 66657U 25274H   26029.34127448  .00004899  00000+0  47817-3 0  9991
2 66657  97.7414 320.7478 0013806 113.0239 247.2438 14.92799672  9502
K-HERO
1 66660U 25274L   26029.32001686  .00003755  00000+0  36334-3 0  9990
2 66660  97.7422 320.7810 0015462 117.6185 242.6606 14.93279569  9500
SNUGLITE-III DURI
1 66661U 25274M   26029.38145370  .00003199  00000+0  30939-3 0  9993
2 66661  97.7420 320.8517 0016095 118.4821 241.8022 14.93391221  9517
SilverSat
1 66909U 98067XV  26028.88178503  .00138212  00000+0  16306-2 0  9992
2 66909  51.6294 266.8401 0003152 156.3335 203.7804 15.60375041  8951
GALAPAGOS
1 67279U 25313AH  26029.46768698  .00013568  00000+0  61888-3 0  9994
2 67279  97.4081 106.3865 0015942 127.6165 232.6520 15.20633692  4854
Lobachevsky
1 67282U 25313AL  26029.45163920  .00011043  00000+0  49477-3 0  9990
2 67282  97.4080 106.3955 0012259 122.8445 237.3972 15.21347673  4858
SAKHACUBE-CHOLBON
1 67290U 25313AU  26029.31192939  .00017834  00000+0  78381-3 0  9996
2 67290  97.4088 106.2877 0010976 121.2678 238.9635 15.21905422  4835
QMR-KWT
1 67291U 25313AV  26029.31026473  .00024205  00000+0  10552-2 0  9991
2 67291  97.4087 106.2899 0010714 121.3284 238.9002 15.22122871  4831
Delfi-N3xt
1 39428U 13066N   26029.34773703  .00015970  00000-0  14570-2 0  9996
2 39428  97.8350 310.0013 0076496 309.3085  50.1368 14.92930735653895
HYDRA-T
1 62692U 25009CM  26026.71469105  .03125299  16016-1  35684-2 0  9994
2 62692  97.3655 117.3849 0009581 301.7131  58.3219 16.11985437 57874
IO-86
1 40931U          25360.30710720  .00000000  00000-0  12800-3 0    00
2 40931   6.0006 332.5373 0012733 338.8432   8.1437 14.79075515    01
PARUS-T1
1 98707U 25009N   25063.20000000  .00000000  00000-0  00000-0 0    08
2 98707  97.4430 144.9801 0003811 149.1702 136.3402 15.16239457    06
T.MicroSat-1
1 98515U 25276Y   25347.12519372 +.00009703 +00000+0 +47621-3 0 00218
2 98515  97.4377  58.8963 0002080  99.7173 260.4296 15.18293117002180
CORIOLIS
1 27640U 03001A   26030.50650612  .00000214  00000+0  12130-3 0  9995
2 27640  98.7150  39.4820 0013038 248.0236 111.9556 14.19896452194682
